{"type": "FeatureCollection", "features": [ {"type": "Feature", "properties": {"norad_id": 30629, "name": "FENGYUN 1C DEB", "group": "fengyun-1c-debris", "lat": 74.76152860448934, "lon": 45.64023625376268, "alt_km": 690.1206394073952, "timestamp": "2025-12-12T11:38:31.689612+00:00", "meta": {"OBJECT_NAME": "FENGYUN 1C DEB", "OBJECT_ID": "1999-025ANL", "EPOCH": "2025-12-11T05:48:03.139200", "MEAN_MOTION": 14.59499249, "ECCENTRICITY": 0.00076688, "INCLINATION": 99.2511, "RA_OF_ASC_NODE": 81.0041, "ARG_OF_PERICENTER": 201.0613, "MEAN_ANOMALY": 187.5176, "EPHEMERIS_TYPE": 0, "CLASSIFICATION_TYPE": "U", "NORAD_CAT_ID": 30629, "ELEMENT_SET_NO": 999, "REV_AT_EPOCH": 97868, "BSTAR": 0.0046504314, "MEAN_MOTION_DOT": 0.00022097, "MEAN_MOTION_DDOT": 0}, "tle": {"line1": "1 30629U 99025ANL 25345.24170300  .00022097  00000+0  46504-2 0  9991", "line2": "2 30629  99.2511  81.0041 0007668 201.0613 187.5176 14.59499249978682"}}, "geometry": {"type": "Point", "coordinates": [45.64023625376268, 74.76152860448934]}}, {"type": "Feature", "properties": {"norad_id": 30630, "name": "FENGYUN 1C DEB", "group": "fengyun-1c-debris", "lat": 68.7043406367271, "lon": 135.02171859066186, "alt_km": 791.9709654425951, "timestamp": "2025-12-12T11:38:31.689622+00:00", "meta": {"OBJECT_NAME": "FENGYUN 1C DEB", "OBJECT_ID": "1999-025ANM", "EPOCH": "2025-12-10T10:39:01.574208", "MEAN_MOTION": 14.22363681, "ECCENTRICITY": 0.00259802, "INCLINATION": 99.1729, "RA_OF_ASC_NODE": 157.3885, "ARG_OF_PERICENTER": 81.0772, "MEAN_ANOMALY": 342.8563, "EPHEMERIS_TYPE": 0, "CLASSIFICATION_TYPE": "U", "NORAD_CAT_ID": 30630, "ELEMENT_SET_NO": 999, "REV_AT_EPOCH": 97180, "BSTAR": 0.0013137827, "MEAN_MOTION_DOT": 2.886e-05, "MEAN_MOTION_DDOT": 0}, "tle": {"line1": "1 30630U 99025ANM 25344.44376822  .00002886  00000+0  13138-2 0  9992", "line2": "2 30630  99.1729 157.3885 0025980  81.0772 342.8563 14.22363681971809"}}, "geometry": {"type": "Point", "coordinates": [135.02171859066186, 68.7043406367271]}}, {"type": "Feature", "properties": {"norad_id": 30632, "name": "FENGYUN 1C DEB", "group": "fengyun-1c-debris", "lat": -44.166304047646655, "lon": -70.85981985908441, "alt_km": 684.9092710755485, "timestamp": "2025-12-12T11:38:31.689633+00:00", "meta": {"OBJECT_NAME": "FENGYUN 1C DEB", "OBJECT_ID": "1999-025ANP", "EPOCH": "2025-12-11T22:03:45.567360", "MEAN_MOTION": 14.62703719, "ECCENTRICITY": 0.001514, "INCLINATION": 98.8232, "RA_OF_ASC_NODE": 117.2132, "ARG_OF_PERICENTER": 171.3871, "MEAN_ANOMALY": 315.5157, "EPHEMERIS_TYPE": 0, "CLASSIFICATION_TYPE": "U", "NORAD_CAT_ID": 30632, "ELEMENT_SET_NO": 999, "REV_AT_EPOCH": 97679, "BSTAR": 0.0048896, "MEAN_MOTION_DOT": 0.00024974, "MEAN_MOTION_DDOT": 0}, "tle": {"line1": "1 30632U 99025ANP 25345.91927740  .00024974  00000+0  48896-2 0  9999", "line2": "2 30632  98.8232 117.2132 0015140 171.3871 315.5157 14.62703719976799"}}, "geometry": {"type": "Point", "coordinates": [-70.85981985908441, -44.166304047646655]}}, {"type": "Feature", "properties": {"norad_id": 30633, "name": "FENGYUN 1C DEB", "group": "fengyun-1c-debris", "lat": 14.640412851830753, "lon": 33.72405117258211, "alt_km": 887.8966895836365, "timestamp": "2025-12-12T11:38:31.689643+00:00", "meta": {"OBJECT_NAME": "FENGYUN 1C DEB", "OBJECT_ID": "1999-025ANQ", "EPOCH": "2025-12-12T03:01:46.117344", "MEAN_MOTION": 14.04385986, "ECCENTRICITY": 0.01303, "INCLINATION": 98.4205, "RA_OF_ASC_NODE": 211.1735, "ARG_OF_PERICENTER": 261.9633, "MEAN_ANOMALY": 251.3001, "EPHEMERIS_TYPE": 0, "CLASSIFICATION_TYPE": "U", "NORAD_CAT_ID": 30633, "ELEMENT_SET_NO": 999, "REV_AT_EPOCH": 95883, "BSTAR": 0.0012614, "MEAN_MOTION_DOT": 2.126e-05, "MEAN_MOTION_DDOT": 0}, "tle": {"line1": "1 30633U 99025ANQ 25346.12622821  .00002126  00000+0  12614-2 0  9990", "line2": "2 30633  98.4205 211.1735 0130300 261.9633 251.3001 14.04385986958835"}}, "geometry": {"type": "Point", "coordinates": [33.72405117258211, 14.640412851830753]}}, {"type": "Feature", "properties": {"norad_id": 30634, "name": "FENGYUN 1C DEB", "group": "fengyun-1c-debris", "lat": 11.164470598774217, "lon": 151.1484434052676, "alt_km": 832.6290065119865, "timestamp": "2025-12-12T11:38:31.689653+00:00", "meta": {"OBJECT_NAME": "FENGYUN 1C DEB", "OBJECT_ID": "1999-025ANR", "EPOCH": "2025-12-11T23:14:43.632384", "MEAN_MOTION": 14.09700105, "ECCENTRICITY": 0.0120722, "INCLINATION": 99.2928, "RA_OF_ASC_NODE": 328.7636, "ARG_OF_PERICENTER": 98.7811, "MEAN_ANOMALY": 328.5761, "EPHEMERIS_TYPE": 0, "CLASSIFICATION_TYPE": "U", "NORAD_CAT_ID": 30634, "ELEMENT_SET_NO": 999, "REV_AT_EPOCH": 95606, "BSTAR": 0.0032295, "MEAN_MOTION_DOT": 6.02e-05, "MEAN_MOTION_DDOT": 0}, "tle": {"line1": "1 30634U 99025ANR 25345.96856056  .00006020  00000+0  32295-2 0  9995", "line2": "2 30634  99.2928 328.7636 0120722  98.7811 328.5761 14.09700105956065"}}, "geometry": {"type": "Point", "coordinates": [151.1484434052676, 11.164470598774217]}}, {"type": "Feature", "properties": {"norad_id": 30639, "name": "FENGYUN 1C DEB", "group": "fengyun-1c-debris", "lat": 7.2367660178638396, "lon": -80.38355889919255, "alt_km": 801.7080063097274, "timestamp": "2025-12-12T11:38:31.689664+00:00", "meta": {"OBJECT_NAME": "FENGYUN 1C DEB", "OBJECT_ID": "1999-025ANW", "EPOCH": "2025-12-11T21:25:11.146368", "MEAN_MOTION": 14.32311003, "ECCENTRICITY": 0.0067494, "INCLINATION": 99.0175, "RA_OF_ASC_NODE": 97.8451, "ARG_OF_PERICENTER": 283.7364, "MEAN_ANOMALY": 75.6312, "EPHEMERIS_TYPE": 0, "CLASSIFICATION_TYPE": "U", "NORAD_CAT_ID": 30639, "ELEMENT_SET_NO": 999, "REV_AT_EPOCH": 96707, "BSTAR": 0.0045346, "MEAN_MOTION_DOT": 0.00012529, "MEAN_MOTION_DDOT": 0}, "tle": {"line1": "1 30639U 99025ANW 25345.89249012  .00012529  00000+0  45346-2 0  9992", "line2": "2 30639  99.0175  97.8451 0067494 283.7364  75.6312 14.32311003967072"}}, "geometry": {"type": "Point", "coordinates": [-80.38355889919255, 7.2367660178638396]}}, {"type": "Feature", "properties": {"norad_id": 30640, "name": "FENGYUN 1C DEB", "group": "fengyun-1c-debris", "lat": -35.005670892504725, "lon": 64.10190335161118, "alt_km": 892.0785581411092, "timestamp": "2025-12-12T11:38:31.689674+00:00", "meta": {"OBJECT_NAME": "FENGYUN 1C DEB", "OBJECT_ID": "1999-025ANX", "EPOCH": "2025-12-12T03:27:57.055104", "MEAN_MOTION": 14.14626342, "ECCENTRICITY": 0.0080904, "INCLINATION": 99.057, "RA_OF_ASC_NODE": 57.3425, "ARG_OF_PERICENTER": 102.2672, "MEAN_ANOMALY": 288.9595, "EPHEMERIS_TYPE": 0, "CLASSIFICATION_TYPE": "U", "NORAD_CAT_ID": 30640, "ELEMENT_SET_NO": 999, "REV_AT_EPOCH": 96437, "BSTAR": 0.0022778, "MEAN_MOTION_DOT": 4.475e-05, "MEAN_MOTION_DDOT": 0}, "tle": {"line1": "1 30640U 99025ANX 25346.14441036  .00004475  00000+0  22778-2 0  9998", "line2": "2 30640  99.0570  57.3425 0080904 102.2672 288.9595 14.14626342964370"}}, "geometry": {"type": "Point", "coordinates": [64.10190335161118, -35.005670892504725]}}, {"type": "Feature", "properties": {"norad_id": 30641, "name": "FENGYUN 1C DEB", "group": "fengyun-1c-debris", "lat": -35.65991866606455, "lon": 94.34607805997047, "alt_km": 635.389972163849, "timestamp": "2025-12-12T11:38:31.689684+00:00", "meta": {"OBJECT_NAME": "FENGYUN 1C DEB", "OBJECT_ID": "1999-025ANY", "EPOCH": "2025-12-11T18:34:54.477696", "MEAN_MOTION": 14.78949286, "ECCENTRICITY": 0.01361893, "INCLINATION": 98.9413, "RA_OF_ASC_NODE": 280.0427, "ARG_OF_PERICENTER": 129.6242, "MEAN_ANOMALY": 262.3989, "EPHEMERIS_TYPE": 0, "CLASSIFICATION_TYPE": "U", "NORAD_CAT_ID": 30641, "ELEMENT_SET_NO": 999, "REV_AT_EPOCH": 518, "BSTAR": 0.00078379483, "MEAN_MOTION_DOT": 6.697e-05, "MEAN_MOTION_DDOT": 0}, "tle": {"line1": "1 30641U 99025ANY 25345.77424164  .00006697  00000+0  78379-3 0  9997", "line2": "2 30641  98.9413 280.0427 0136189 129.6242 262.3989 14.78949286  5188"}}, "geometry": {"type": "Point", "coordinates": [94.34607805997047, -35.65991866606455]}}, {"type": "Feature", "properties": {"norad_id": 30646, "name": "FENGYUN 1C DEB", "group": "fengyun-1c-debris", "lat": 15.73683974173512, "lon": 4.575426381994801, "alt_km": 827.7424776579555, "timestamp": "2025-12-12T11:38:31.689694+00:00", "meta": {"OBJECT_NAME": "FENGYUN 1C DEB", "OBJECT_ID": "1999-025APD", "EPOCH": "2025-12-11T23:38:34.887264", "MEAN_MOTION": 14.09649793, "ECCENTRICITY": 0.0048286, "INCLINATION": 98.652, "RA_OF_ASC_NODE": 6.5539, "ARG_OF_PERICENTER": 34.3062, "MEAN_ANOMALY": 326.1212, "EPHEMERIS_TYPE": 0, "CLASSIFICATION_TYPE": "U", "NORAD_CAT_ID": 30646, "ELEMENT_SET_NO": 999, "REV_AT_EPOCH": 96594, "BSTAR": 0.0010329, "MEAN_MOTION_DOT": 1.788e-05, "MEAN_MOTION_DDOT": 0}, "tle": {"line1": "1 30646U 99025APD 25345.98512601  .00001788  00000+0  10329-2 0  9995", "line2": "2 30646  98.6520   6.5539 0048286  34.3062 326.1212 14.09649793965947"}}, "geometry": {"type": "Point", "coordinates": [4.575426381994801, 15.73683974173512]}}, {"type": "Feature", "properties": {"norad_id": 30647, "name": "FENGYUN 1C DEB", "group": "fengyun-1c-debris", "lat": 70.08360068240198, "lon": -107.39529488932342, "alt_km": 702.2616333362257, "timestamp": "2025-12-12T11:38:31.689704+00:00", "meta": {"OBJECT_NAME": "FENGYUN 1C DEB", "OBJECT_ID": "1999-025APE", "EPOCH": "2025-12-11T18:57:04.275648", "MEAN_MOTION": 14.56448022, "ECCENTRICITY": 0.00291516, "INCLINATION": 98.9886, "RA_OF_ASC_NODE": 277.7597, "ARG_OF_PERICENTER": 177.009, "MEAN_ANOMALY": 211.1616, "EPHEMERIS_TYPE": 0, "CLASSIFICATION_TYPE": "U", "NORAD_CAT_ID": 30647, "ELEMENT_SET_NO": 999, "REV_AT_EPOCH": 97975, "BSTAR": 0.0035179044, "MEAN_MOTION_DOT": 0.000157, "MEAN_MOTION_DDOT": 0}, "tle": {"line1": "1 30647U 99025APE 25345.78963282  .00015700  00000+0  35179-2 0  9998", "line2": "2 30647  98.9886 277.7597 0029151 177.0090 211.1616 14.56448022979757"}}, "geometry": {"type": "Point", "coordinates": [-107.39529488932342, 70.08360068240198]}}]}